{"fetched_at":"2026-07-14T06:34:16.734Z","source":"https://celestrak.org/NORAD/elements/gp.php?GROUP=globalstar&FORMAT=JSON","constellation":"globalstar","records":[{"OBJECT_NAME":"GLOBALSTAR M080","OBJECT_ID":"2011-080B","EPOCH":"2026-07-13T14:49:32.069856","CLASSIFICATION_TYPE":"U","MEAN_MOTION":12.62257356,"ECCENTRICITY":0.0000329,"INCLINATION":52.0065,"RA_OF_ASC_NODE":298.5472,"ARG_OF_PERICENTER":80.7125,"MEAN_ANOMALY":24.9424,"EPHEMERIS_TYPE":0,"NORAD_CAT_ID":38041,"ELEMENT_SET_NO":999,"REV_AT_EPOCH":67222,"BSTAR":0.000095324,"MEAN_MOTION_DOT":-8.7e-7,"MEAN_MOTION_DDOT":0},{"OBJECT_NAME":"GLOBALSTAR M082","OBJECT_ID":"2011-080C","EPOCH":"2026-07-13T11:22:34.563360","CLASSIFICATION_TYPE":"U","MEAN_MOTION":12.62264119,"ECCENTRICITY":0.00002074,"INCLINATION":52.0063,"RA_OF_ASC_NODE":254.4891,"ARG_OF_PERICENTER":94.8998,"MEAN_ANOMALY":7.2449,"EPHEMERIS_TYPE":0,"NORAD_CAT_ID":38042,"ELEMENT_SET_NO":999,"REV_AT_EPOCH":67291,"BSTAR":0.00018316901,"MEAN_MOTION_DOT":-7.1e-7,"MEAN_MOTION_DDOT":0},{"OBJECT_NAME":"GLOBALSTAR M092","OBJECT_ID":"2011-080D","EPOCH":"2026-07-13T10:23:34.313856","CLASSIFICATION_TYPE":"U","MEAN_MOTION":12.62267776,"ECCENTRICITY":0.00008063,"INCLINATION":52.0104,"RA_OF_ASC_NODE":345.0105,"ARG_OF_PERICENTER":100.4772,"MEAN_ANOMALY":294.7204,"EPHEMERIS_TYPE":0,"NORAD_CAT_ID":38043,"ELEMENT_SET_NO":999,"REV_AT_EPOCH":67136,"BSTAR":0.000088877017,"MEAN_MOTION_DOT":-8.8e-7,"MEAN_MOTION_DDOT":0},{"OBJECT_NAME":"GLOBALSTAR M090","OBJECT_ID":"2011-080E","EPOCH":"2026-07-13T08:05:43.649664","CLASSIFICATION_TYPE":"U","MEAN_MOTION":12.62269392,"ECCENTRICITY":0.00004407,"INCLINATION":52.0109,"RA_OF_ASC_NODE":248.8695,"ARG_OF_PERICENTER":97.8861,"MEAN_ANOMALY":341.5157,"EPHEMERIS_TYPE":0,"NORAD_CAT_ID":38044,"ELEMENT_SET_NO":999,"REV_AT_EPOCH":67301,"BSTAR":0.00021234763,"MEAN_MOTION_DOT":-6.6e-7,"MEAN_MOTION_DDOT":0},{"OBJECT_NAME":"GLOBALSTAR M086","OBJECT_ID":"2011-080F","EPOCH":"2026-07-13T08:37:00.947136","CLASSIFICATION_TYPE":"U","MEAN_MOTION":12.6228771,"ECCENTRICITY":0.00015547,"INCLINATION":51.9878,"RA_OF_ASC_NODE":248.689,"ARG_OF_PERICENTER":109.3959,"MEAN_ANOMALY":332.3649,"EPHEMERIS_TYPE":0,"NORAD_CAT_ID":38045,"ELEMENT_SET_NO":999,"REV_AT_EPOCH":67296,"BSTAR":0.00013766447,"MEAN_MOTION_DOT":-7.9e-7,"MEAN_MOTION_DDOT":0},{"OBJECT_NAME":"GLOBALSTAR M097","OBJECT_ID":"2013-005A","EPOCH":"2026-07-13T07:02:50.031168","CLASSIFICATION_TYPE":"U","MEAN_MOTION":12.62271431,"ECCENTRICITY":0.00003829,"INCLINATION":52.0026,"RA_OF_ASC_NODE":163.8647,"ARG_OF_PERICENTER":37.5413,"MEAN_ANOMALY":322.5481,"EPHEMERIS_TYPE":0,"NORAD_CAT_ID":39072,"ELEMENT_SET_NO":999,"REV_AT_EPOCH":62020,"BSTAR":-0.000080268837,"MEAN_MOTION_DOT":-0.00000118,"MEAN_MOTION_DDOT":0},{"OBJECT_NAME":"GLOBALSTAR M093","OBJECT_ID":"2013-005B","EPOCH":"2026-07-13T06:24:16.715232","CLASSIFICATION_TYPE":"U","MEAN_MOTION":12.62266344,"ECCENTRICITY":0.0000608,"INCLINATION":52.0087,"RA_OF_ASC_NODE":157.3029,"ARG_OF_PERICENTER":41.5808,"MEAN_ANOMALY":318.5105,"EPHEMERIS_TYPE":0,"NORAD_CAT_ID":39073,"ELEMENT_SET_NO":999,"REV_AT_EPOCH":62015,"BSTAR":-0.000059923,"MEAN_MOTION_DOT":-0.00000115,"MEAN_MOTION_DDOT":0},{"OBJECT_NAME":"GLOBALSTAR M094","OBJECT_ID":"2013-005C","EPOCH":"2026-07-12T20:53:56.397696","CLASSIFICATION_TYPE":"U","MEAN_MOTION":12.62264077,"ECCENTRICITY":0.00009481,"INCLINATION":51.9967,"RA_OF_ASC_NODE":72.6003,"ARG_OF_PERICENTER":58.272,"MEAN_ANOMALY":301.8239,"EPHEMERIS_TYPE":0,"NORAD_CAT_ID":39074,"ELEMENT_SET_NO":999,"REV_AT_EPOCH":62171,"BSTAR":-0.000095421143,"MEAN_MOTION_DOT":-0.00000121,"MEAN_MOTION_DDOT":0},{"OBJECT_NAME":"GLOBALSTAR M096","OBJECT_ID":"2013-005D","EPOCH":"2026-07-13T04:49:31.323072","CLASSIFICATION_TYPE":"U","MEAN_MOTION":12.62265679,"ECCENTRICITY":0.0000702,"INCLINATION":52.0067,"RA_OF_ASC_NODE":120.416,"ARG_OF_PERICENTER":38.1669,"MEAN_ANOMALY":321.9247,"EPHEMERIS_TYPE":0,"NORAD_CAT_ID":39075,"ELEMENT_SET_NO":999,"REV_AT_EPOCH":62067,"BSTAR":-0.000075049,"MEAN_MOTION_DOT":-0.00000117,"MEAN_MOTION_DDOT":0},{"OBJECT_NAME":"GLOBALSTAR M078","OBJECT_ID":"2013-005E","EPOCH":"2026-07-13T09:52:53.537664","CLASSIFICATION_TYPE":"U","MEAN_MOTION":12.62260133,"ECCENTRICITY":0.00007884,"INCLINATION":51.9843,"RA_OF_ASC_NODE":203.7494,"ARG_OF_PERICENTER":332.9805,"MEAN_ANOMALY":27.1021,"EPHEMERIS_TYPE":0,"NORAD_CAT_ID":39076,"ELEMENT_SET_NO":999,"REV_AT_EPOCH":61932,"BSTAR":0.000050443202,"MEAN_MOTION_DOT":-9.5e-7,"MEAN_MOTION_DDOT":0},{"OBJECT_NAME":"GLOBALSTAR M095","OBJECT_ID":"2013-005F","EPOCH":"2026-07-12T09:48:59.292576","CLASSIFICATION_TYPE":"U","MEAN_MOTION":12.62264177,"ECCENTRICITY":0.00003526,"INCLINATION":52.0054,"RA_OF_ASC_NODE":204.4426,"ARG_OF_PERICENTER":10.4758,"MEAN_ANOMALY":349.6116,"EPHEMERIS_TYPE":0,"NORAD_CAT_ID":39077,"ELEMENT_SET_NO":999,"REV_AT_EPOCH":61905,"BSTAR":0.00012838796,"MEAN_MOTION_DOT":-8.1e-7,"MEAN_MOTION_DDOT":0},{"OBJECT_NAME":"GLOBALSTAR M087","OBJECT_ID":"2022-064A","EPOCH":"2026-07-13T16:32:17.032128","CLASSIFICATION_TYPE":"U","MEAN_MOTION":12.62269319,"ECCENTRICITY":0.0000916,"INCLINATION":52.0015,"RA_OF_ASC_NODE":341.7692,"ARG_OF_PERICENTER":84.36,"MEAN_ANOMALY":275.7371,"EPHEMERIS_TYPE":0,"NORAD_CAT_ID":52888,"ELEMENT_SET_NO":999,"REV_AT_EPOCH":19448,"BSTAR":-1.4931e-7,"MEAN_MOTION_DOT":-0.00000104,"MEAN_MOTION_DDOT":0}]}
